{
  "norad_id": 64306,
  "name": "STARLINK-34355",
  "history": [
    {
      "epoch": "2026-04-30T05:26:21.515424Z",
      "apogee_km": 574.2037212183741,
      "perigee_km": 569.8404113565584,
      "latitude_deg": -5.453794625634573e-05,
      "longitude_deg": 124.92781239040806,
      "height_km": 574.5267128475349,
      "semi_major_axis_km": 6950.159066287466,
      "eccentricity": 0.0003139,
      "inclination_deg": 70.0023,
      "raan_deg": 64.6939,
      "arg_perigee_deg": 267.9809,
      "mean_anomaly_deg": 92.099,
      "mean_motion_rev_day": 14.98340938
    },
    {
      "epoch": "2026-05-02T02:18:07.474176Z",
      "apogee_km": 574.0691026481672,
      "perigee_km": 570.0254854258965,
      "latitude_deg": 2.9779573511362303e-05,
      "longitude_deg": 165.43149784497663,
      "height_km": 574.4780657780916,
      "semi_major_axis_km": 6950.184294037032,
      "eccentricity": 0.0002909,
      "inclination_deg": 70.0018,
      "raan_deg": 59.9815,
      "arg_perigee_deg": 269.9071,
      "mean_anomaly_deg": 90.1755,
      "mean_motion_rev_day": 14.9833278
    },
    {
      "epoch": "2026-05-03T18:21:28.908288Z",
      "apogee_km": 574.1068777792825,
      "perigee_km": 569.9395617115233,
      "latitude_deg": 4.477611127381965e-05,
      "longitude_deg": -81.25934941866443,
      "height_km": 574.4752225028601,
      "semi_major_axis_km": 6950.160219745402,
      "eccentricity": 0.0002998,
      "inclination_deg": 70.0029,
      "raan_deg": 55.775,
      "arg_perigee_deg": 269.3309,
      "mean_anomaly_deg": 90.7507,
      "mean_motion_rev_day": 14.98340565
    },
    {
      "epoch": "2026-05-04T19:59:37.980672Z",
      "apogee_km": 573.9363404498026,
      "perigee_km": 570.1429340411942,
      "latitude_deg": 8.726091782094245e-06,
      "longitude_deg": -109.54359484072653,
      "height_km": 574.3486306099137,
      "semi_major_axis_km": 6950.176637245499,
      "eccentricity": 0.0002729,
      "inclination_deg": 70.0037,
      "raan_deg": 53.0814,
      "arg_perigee_deg": 273.58,
      "mean_anomaly_deg": 86.5047,
      "mean_motion_rev_day": 14.98335256
    },
    {
      "epoch": "2026-05-05T18:25:29.970336Z",
      "apogee_km": 573.8179407475418,
      "perigee_km": 570.2302675855708,
      "latitude_deg": -5.399051451255149e-05,
      "longitude_deg": -89.2866575775561,
      "height_km": 574.2259076093648,
      "semi_major_axis_km": 6950.1611041665565,
      "eccentricity": 0.0002581,
      "inclination_deg": 70.0028,
      "raan_deg": 50.7262,
      "arg_perigee_deg": 277.218,
      "mean_anomaly_deg": 82.8685,
      "mean_motion_rev_day": 14.98340279
    },
    {
      "epoch": "2026-05-06T18:26:13.644672Z",
      "apogee_km": 574.5095640029904,
      "perigee_km": 558.4355706984006,
      "latitude_deg": -4.737292602276635e-05,
      "longitude_deg": -92.98487862053061,
      "height_km": 572.950172693361,
      "semi_major_axis_km": 6944.609567350695,
      "eccentricity": 0.0011573,
      "inclination_deg": 70.0009,
      "raan_deg": 48.1961,
      "arg_perigee_deg": 239.7897,
      "mean_anomaly_deg": 120.2117,
      "mean_motion_rev_day": 15.00137303
    },
    {
      "epoch": "2026-05-07T20:05:37.175712Z",
      "apogee_km": 574.951848394503,
      "perigee_km": 569.5944722429294,
      "latitude_deg": 1.769073853428646e-05,
      "longitude_deg": -121.57688135728898,
      "height_km": 575.5593583004317,
      "semi_major_axis_km": 6950.4101603187155,
      "eccentricity": 0.0003854,
      "inclination_deg": 70.0007,
      "raan_deg": 45.5058,
      "arg_perigee_deg": 251.3179,
      "mean_anomaly_deg": 108.7562,
      "mean_motion_rev_day": 14.98259744
    },
    {
      "epoch": "2026-05-08T20:07:23.926368Z",
      "apogee_km": 578.4226780523604,
      "perigee_km": 563.1669931005354,
      "latitude_deg": -3.694730605805432e-05,
      "longitude_deg": -125.53266124025966,
      "height_km": 572.6913819779463,
      "semi_major_axis_km": 6948.931835576447,
      "eccentricity": 0.0010977,
      "inclination_deg": 70.0015,
      "raan_deg": 42.9817,
      "arg_perigee_deg": 274.0207,
      "mean_anomaly_deg": 85.9697,
      "mean_motion_rev_day": 14.98737882
    },
    {
      "epoch": "2026-05-09T08:00:01.999008Z",
      "apogee_km": 574.2120700639125,
      "perigee_km": 569.7528734108464,
      "latitude_deg": 30.304101196420593,
      "longitude_deg": -137.63897631366967,
      "height_km": 576.641248048672,
      "semi_major_axis_km": 6950.119471737379,
      "eccentricity": 0.0003208,
      "inclination_deg": 70.0015,
      "raan_deg": 41.7346,
      "arg_perigee_deg": 275.7403,
      "mean_anomaly_deg": 231.8827,
      "mean_motion_rev_day": 14.98353742
    },
    {
      "epoch": "2026-05-10T20:00:01.999008Z",
      "apogee_km": 574.1487584942543,
      "perigee_km": 569.8021581628154,
      "latitude_deg": -40.72302245596509,
      "longitude_deg": -148.84067774177956,
      "height_km": 585.4910194538056,
      "semi_major_axis_km": 6950.112458328535,
      "eccentricity": 0.0003127,
      "inclination_deg": 70.0021,
      "raan_deg": 37.9527,
      "arg_perigee_deg": 269.841,
      "mean_anomaly_deg": 46.4447,
      "mean_motion_rev_day": 14.9835601
    },
    {
      "epoch": "2026-05-11T20:00:01.999008Z",
      "apogee_km": 574.0759703798585,
      "perigee_km": 569.8655950850789,
      "latitude_deg": -47.35079458616691,
      "longitude_deg": -157.33084272483373,
      "height_km": 588.0829254105633,
      "semi_major_axis_km": 6950.107782732468,
      "eccentricity": 0.0003029,
      "inclination_deg": 70.0023,
      "raan_deg": 35.431,
      "arg_perigee_deg": 269.3146,
      "mean_anomaly_deg": 39.4299,
      "mean_motion_rev_day": 14.98357522
    },
    {
      "epoch": "2026-05-12T18:39:36.496800Z",
      "apogee_km": 573.9451417600421,
      "perigee_km": 570.1308857125041,
      "latitude_deg": -4.1489558205105256e-05,
      "longitude_deg": -117.39883228504019,
      "height_km": 574.3229086095624,
      "semi_major_axis_km": 6950.175013736273,
      "eccentricity": 0.0002744,
      "inclination_deg": 70.002,
      "raan_deg": 33.0504,
      "arg_perigee_deg": 274.2829,
      "mean_anomaly_deg": 85.8016,
      "mean_motion_rev_day": 14.98335781
    },
    {
      "epoch": "2026-05-13T16:00:01.998720Z",
      "apogee_km": 574.1770334019302,
      "perigee_km": 570.0249612223361,
      "latitude_deg": 58.58393348665136,
      "longitude_deg": 63.03758437679172,
      "height_km": 583.2011500215609,
      "semi_major_axis_km": 6950.237997312132,
      "eccentricity": 0.0002987,
      "inclination_deg": 70.0026,
      "raan_deg": 30.809,
      "arg_perigee_deg": 265.252,
      "mean_anomaly_deg": 209.6662,
      "mean_motion_rev_day": 14.98315414
    },
    {
      "epoch": "2026-05-14T02:40:57.169056Z",
      "apogee_km": 571.5219086015541,
      "perigee_km": 561.2491542017533,
      "latitude_deg": 3.877143620019812e-05,
      "longitude_deg": 117.58134955262503,
      "height_km": 566.269043057335,
      "semi_major_axis_km": 6944.522531401653,
      "eccentricity": 0.00073963,
      "inclination_deg": 70.0016,
      "raan_deg": 29.6818,
      "arg_perigee_deg": 299.7432,
      "mean_anomaly_deg": 60.2992,
      "mean_motion_rev_day": 15.00165505
    },
    {
      "epoch": "2026-05-15T02:44:19.443552Z",
      "apogee_km": 574.068749257025,
      "perigee_km": 570.0130424476793,
      "latitude_deg": 1.8886971609236644e-05,
      "longitude_deg": 113.22887953401192,
      "height_km": 574.517308384576,
      "semi_major_axis_km": 6950.177895852352,
      "eccentricity": 0.00029177,
      "inclination_deg": 70.0023,
      "raan_deg": 27.1601,
      "arg_perigee_deg": 268.6192,
      "mean_anomaly_deg": 91.4633,
      "mean_motion_rev_day": 14.98334849
    },
    {
      "epoch": "2026-05-16T15:35:24.676224Z",
      "apogee_km": 574.0537649254293,
      "perigee_km": 570.012935883703,
      "latitude_deg": -1.3785200436830386e-05,
      "longitude_deg": -84.9268725576203,
      "height_km": 574.5327945653171,
      "semi_major_axis_km": 6950.170350404565,
      "eccentricity": 0.0002907,
      "inclination_deg": 70.0021,
      "raan_deg": 23.2896,
      "arg_perigee_deg": 267.9602,
      "mean_anomaly_deg": 92.1224,
      "mean_motion_rev_day": 14.98337289
    }
  ]
}